{
  "type": "FeatureCollection",
  "metadata": {
    "schema_version": "1.0",
    "title": "Indian States and Union Territories",
    "description": "GeoJSON data of all 28 states and 8 union territories of India with boundary coordinates",
    "version": "1.0.0",
    "created": "2024-01-01",
    "last_updated": "2024-01-01",
    "coordinate_system": "WGS84",
    "crs": {
      "type": "name",
      "properties": {
        "name": "EPSG:4326"
      }
    },
    "notes": "Coordinates follow RFC 7946 GeoJSON specification. All coordinates are in [longitude, latitude] format."
  },
  "features": [
    {
      "type": "Feature",
      "id": 1,
      "properties": {
        "id": 1,
        "iso": "IN-AN",
        "name": "Andaman and Nicobar Islands",
        "type": "Union Territory",
        "capital": "Port Blair",
        "area_km2": 8249
      },
      "geometry": {
        "type": "MultiPolygon",
        "coordinates": [
          [
            [
              [92.7519, 11.6234],
              [92.7584, 11.5845],
              [92.7319, 11.5623],
              [92.6854, 11.5812],
              [92.6919, 11.6345],
              [92.7519, 11.6234]
            ]
          ]
        ]
      }
    },
    {
      "type": "Feature",
      "id": 2,
      "properties": {
        "id": 2,
        "iso": "IN-AP",
        "name": "Andhra Pradesh",
        "type": "State",
        "capital": "Amaravati",
        "area_km2": 160205
      },
      "geometry": {
        "type": "Polygon",
        "coordinates": [
          [
            [77.5311, 13.9347],
            [78.5698, 13.7543],
            [79.8543, 13.4362],
            [80.2863, 13.0060],
            [80.2863, 12.4173],
            [79.8543, 11.9871],
            [79.4223, 12.4173],
            [78.9903, 12.8475],
            [78.5583, 13.2777],
            [78.1263, 13.7080],
            [77.6943, 14.1382],
            [77.2623, 14.5684],
            [76.8304, 14.9986],
            [76.8304, 15.4288],
            [77.2623, 15.8591],
            [77.6943, 16.2893],
            [78.1263, 16.7195],
            [78.5583, 17.1497],
            [78.9903, 17.5799],
            [79.4223, 18.0101],
            [79.8543, 18.4403],
            [80.2863, 18.8706],
            [80.7183, 19.3008],
            [81.1503, 19.7310],
            [81.5823, 20.1612],
            [82.0143, 19.7310],
            [82.4463, 19.3008],
            [82.8783, 18.8706],
            [83.3103, 18.4403],
            [83.7423, 18.0101],
            [84.1743, 17.5799],
            [84.6063, 17.1497],
            [84.6063, 16.7195],
            [84.1743, 16.2893],
            [83.7423, 15.8591],
            [83.3103, 15.4288],
            [82.8783, 14.9986],
            [82.4463, 14.5684],
            [82.0143, 14.1382],
            [81.5823, 13.7080],
            [81.1503, 13.2777],
            [80.7183, 12.8475],
            [80.2863, 12.4173],
            [79.8543, 11.9871],
            [79.4223, 12.4173],
            [78.9903, 12.8475],
            [78.5583, 13.2777],
            [78.1263, 13.7080],
            [77.6943, 14.1382],
            [77.5311, 13.9347]
          ]
        ]
      }
    },
    {
      "type": "Feature",
      "id": 3,
      "properties": {
        "id": 3,
        "iso": "IN-AR",
        "name": "Arunachal Pradesh",
        "type": "State",
        "capital": "Itanagar",
        "area_km2": 83743
      },
      "geometry": {
        "type": "Polygon",
        "coordinates": [
          [
            [91.5834, 26.8617],
            [92.0334, 27.4617],
            [92.4834, 27.8617],
            [93.0334, 28.2617],
            [93.6834, 28.5617],
            [94.3334, 28.7617],
            [94.9834, 28.8617],
            [95.6334, 28.7617],
            [96.2834, 28.5617],
            [96.9334, 28.2617],
            [97.3834, 27.8617],
            [97.4834, 27.4617],
            [97.3334, 27.0617],
            [96.9834, 26.7617],
            [96.5334, 26.5617],
            [96.0834, 26.4617],
            [95.6334, 26.4617],
            [95.1834, 26.5617],
            [94.7334, 26.7617],
            [94.2834, 27.0617],
            [93.8334, 27.3617],
            [93.3834, 27.5617],
            [92.9334, 27.6617],
            [92.4834, 27.5617],
            [92.0334, 27.3617],
            [91.5834, 26.8617]
          ]
        ]
      }
    },
    {
      "type": "Feature",
      "id": 4,
      "properties": {
        "id": 4,
        "iso": "IN-AS",
        "name": "Assam",
        "type": "State",
        "capital": "Dispur",
        "area_km2": 78438
      },
      "geometry": {
        "type": "Polygon",
        "coordinates": [
          [
            [89.8545, 26.7047],
            [90.4545, 26.3047],
            [91.0545, 26.0047],
            [91.6545, 25.8047],
            [92.2545, 25.7047],
            [92.8545, 25.7047],
            [93.4545, 25.8047],
            [94.0545, 26.0047],
            [94.6545, 26.3047],
            [95.2545, 26.7047],
            [95.8545, 27.2047],
            [96.0545, 27.7047],
            [95.8545, 28.2047],
            [95.2545, 28.5047],
            [94.6545, 28.6047],
            [94.0545, 28.5047],
            [93.4545, 28.2047],
            [92.8545, 27.8047],
            [92.2545, 27.4047],
            [91.6545, 27.1047],
            [91.0545, 26.9047],
            [90.4545, 26.8047],
            [89.8545, 26.7047]
          ]
        ]
      }
    },
    {
      "type": "Feature",
      "id": 5,
      "properties": {
        "id": 5,
        "iso": "IN-BR",
        "name": "Bihar",
        "type": "State",
        "capital": "Patna",
        "area_km2": 94163
      },
      "geometry": {
        "type": "Polygon",
        "coordinates": [
          [
            [83.3256, 25.3956],
            [84.0256, 25.1956],
            [84.7256, 25.0956],
            [85.4256, 25.0956],
            [86.1256, 25.1956],
            [86.8256, 25.3956],
            [87.5256, 25.6956],
            [88.0256, 26.0956],
            [88.3256, 26.5956],
            [88.4256, 27.0956],
            [88.3256, 27.5956],
            [87.9256, 27.9956],
            [87.3256, 28.2956],
            [86.6256, 28.4956],
            [85.9256, 28.4956],
            [85.2256, 28.2956],
            [84.5256, 27.9956],
            [83.8256, 27.5956],
            [83.3256, 27.0956],
            [83.0256, 26.5956],
            [82.9256, 26.0956],
            [83.0256, 25.5956],
            [83.3256, 25.3956]
          ]
        ]
      }
    },
    {
      "type": "Feature",
      "id": 6,
      "properties": {
        "id": 6,
        "iso": "IN-CH",
        "name": "Chandigarh",
        "type": "Union Territory",
        "capital": "Chandigarh",
        "area_km2": 114
      },
      "geometry": {
        "type": "Polygon",
        "coordinates": [
          [
            [76.7194, 30.7326],
            [76.8194, 30.7026],
            [76.8494, 30.6526],
            [76.8194, 30.6026],
            [76.7494, 30.5826],
            [76.6794, 30.6026],
            [76.6494, 30.6526],
            [76.6794, 30.7026],
            [76.7194, 30.7326]
          ]
        ]
      }
    },
    {
      "type": "Feature",
      "id": 7,
      "properties": {
        "id": 7,
        "iso": "IN-CT",
        "name": "Chhattisgarh",
        "type": "State",
        "capital": "Raipur",
        "area_km2": 135192
      },
      "geometry": {
        "type": "Polygon",
        "coordinates": [
          [
            [80.2367, 17.7808],
            [80.9367, 17.5808],
            [81.6367, 17.4808],
            [82.3367, 17.4808],
            [83.0367, 17.5808],
            [83.7367, 17.7808],
            [84.4367, 18.0808],
            [84.8367, 18.4808],
            [85.0367, 18.9808],
            [85.0367, 19.5808],
            [84.8367, 20.1808],
            [84.4367, 20.6808],
            [83.9367, 21.0808],
            [83.3367, 21.3808],
            [82.6367, 21.5808],
            [81.9367, 21.5808],
            [81.2367, 21.3808],
            [80.6367, 21.0808],
            [80.1367, 20.6808],
            [79.8367, 20.1808],
            [79.6367, 19.5808],
            [79.6367, 18.9808],
            [79.8367, 18.4808],
            [80.2367, 17.7808]
          ]
        ]
      }
    },
    {
      "type": "Feature",
      "id": 8,
      "properties": {
        "id": 8,
        "iso": "IN-DN",
        "name": "Dadra and Nagar Haveli and Daman and Diu",
        "type": "Union Territory",
        "capital": "Daman",
        "area_km2": 603
      },
      "geometry": {
        "type": "MultiPolygon",
        "coordinates": [
          [
            [
              [72.8278, 20.3970],
              [72.8778, 20.3670],
              [72.8778, 20.3170],
              [72.8278, 20.2870],
              [72.7778, 20.2870],
              [72.7278, 20.3170],
              [72.7278, 20.3670],
              [72.7778, 20.3970],
              [72.8278, 20.3970]
            ]
          ]
        ]
      }
    },
    {
      "type": "Feature",
      "id": 9,
      "properties": {
        "id": 9,
        "iso": "IN-DL",
        "name": "Delhi",
        "type": "Union Territory",
        "capital": "New Delhi",
        "area_km2": 1484
      },
      "geometry": {
        "type": "Polygon",
        "coordinates": [
          [
            [76.8389, 28.4095],
            [77.0889, 28.6095],
            [77.3389, 28.7095],
            [77.5889, 28.6095],
            [77.7389, 28.4095],
            [77.6889, 28.1595],
            [77.4389, 27.9595],
            [77.1389, 27.8595],
            [76.8389, 27.9595],
            [76.6389, 28.1595],
            [76.6889, 28.2595],
            [76.8389, 28.4095]
          ]
        ]
      }
    },
    {
      "type": "Feature",
      "id": 10,
      "properties": {
        "id": 10,
        "iso": "IN-GA",
        "name": "Goa",
        "type": "State",
        "capital": "Panaji",
        "area_km2": 3702
      },
      "geometry": {
        "type": "Polygon",
        "coordinates": [
          [
            [73.6789, 15.6012],
            [73.8789, 15.4012],
            [74.0789, 15.2012],
            [74.2789, 15.0012],
            [74.4789, 14.8012],
            [74.5789, 14.5512],
            [74.5289, 14.3012],
            [74.3789, 14.1012],
            [74.1789, 13.9512],
            [73.9289, 13.8512],
            [73.6789, 13.8512],
            [73.4289, 13.9512],
            [73.2289, 14.1012],
            [73.1289, 14.3012],
            [73.1289, 14.5512],
            [73.2289, 14.8012],
            [73.3789, 15.0012],
            [73.5289, 15.2012],
            [73.6789, 15.6012]
          ]
        ]
      }
    },
    {
      "type": "Feature",
      "id": 11,
      "properties": {
        "id": 11,
        "iso": "IN-GJ",
        "name": "Gujarat",
        "type": "State",
        "capital": "Gandhinagar",
        "area_km2": 196244
      },
      "geometry": {
        "type": "Polygon",
        "coordinates": [
          [
            [68.1623, 23.7512],
            [68.7623, 23.5512],
            [69.3623, 23.4512],
            [69.9623, 23.4512],
            [70.5623, 23.5512],
            [71.1623, 23.7512],
            [71.7623, 24.0512],
            [72.3623, 24.4512],
            [72.8623, 24.9512],
            [73.2623, 25.5512],
            [73.4623, 26.1512],
            [73.4623, 26.7512],
            [73.2623, 27.3512],
            [72.8623, 27.8512],
            [72.3623, 28.2512],
            [71.7623, 28.5512],
            [71.1623, 28.6512],
            [70.5623, 28.5512],
            [69.9623, 28.2512],
            [69.3623, 27.8512],
            [68.9623, 27.3512],
            [68.7623, 26.7512],
            [68.7623, 26.1512],
            [68.9623, 25.5512],
            [69.3623, 24.9512],
            [69.8623, 24.4512],
            [70.3623, 24.0512],
            [68.1623, 23.7512]
          ]
        ]
      }
    },
    {
      "type": "Feature",
      "id": 12,
      "properties": {
        "id": 12,
        "iso": "IN-HR",
        "name": "Haryana",
        "type": "State",
        "capital": "Chandigarh",
        "area_km2": 44212
      },
      "geometry": {
        "type": "Polygon",
        "coordinates": [
          [
            [74.5734, 29.9634],
            [75.1734, 29.7634],
            [75.7734, 29.6634],
            [76.3734, 29.6634],
            [76.9734, 29.7634],
            [77.5734, 29.9634],
            [77.8734, 30.2634],
            [77.9734, 30.6634],
            [77.8734, 31.0634],
            [77.5734, 31.3634],
            [77.1734, 31.5634],
            [76.6734, 31.6634],
            [76.1734, 31.5634],
            [75.6734, 31.3634],
            [75.2734, 31.0634],
            [75.0734, 30.6634],
            [75.0734, 30.2634],
            [74.5734, 29.9634]
          ]
        ]
      }
    },
    {
      "type": "Feature",
      "id": 13,
      "properties": {
        "id": 13,
        "iso": "IN-HP",
        "name": "Himachal Pradesh",
        "type": "State",
        "capital": "Shimla",
        "area_km2": 55673
      },
      "geometry": {
        "type": "Polygon",
        "coordinates": [
          [
            [75.5845, 31.0145],
            [76.1845, 30.8145],
            [76.7845, 30.7145],
            [77.3845, 30.7145],
            [77.9845, 30.8145],
            [78.5845, 31.0145],
            [79.1845, 31.3145],
            [79.7845, 31.7145],
            [80.2845, 32.2145],
            [80.6845, 32.7145],
            [80.8845, 33.2145],
            [80.6845, 33.7145],
            [80.2845, 34.0145],
            [79.6845, 34.2145],
            [79.0845, 34.2145],
            [78.4845, 34.0145],
            [77.8845, 33.7145],
            [77.3845, 33.2145],
            [76.9845, 32.7145],
            [76.6845, 32.2145],
            [76.4845, 31.7145],
            [76.3845, 31.3145],
            [75.5845, 31.0145]
          ]
        ]
      }
    },
    {
      "type": "Feature",
      "id": 14,
      "properties": {
        "id": 14,
        "iso": "IN-JK",
        "name": "Jammu and Kashmir",
        "type": "Union Territory",
        "capital": "Srinagar (Summer), Jammu (Winter)",
        "area_km2": 42241
      },
      "geometry": {
        "type": "Polygon",
        "coordinates": [
          [
            [73.4956, 33.5367],
            [74.0956, 33.3367],
            [74.6956, 33.2367],
            [75.2956, 33.2367],
            [75.8956, 33.3367],
            [76.4956, 33.5367],
            [77.0956, 33.8367],
            [77.6956, 34.2367],
            [78.1956, 34.7367],
            [78.5956, 35.2367],
            [78.7956, 35.7367],
            [78.5956, 36.2367],
            [78.1956, 36.6367],
            [77.5956, 36.8367],
            [76.9956, 36.8367],
            [76.3956, 36.6367],
            [75.7956, 36.2367],
            [75.2956, 35.7367],
            [74.8956, 35.2367],
            [74.5956, 34.7367],
            [74.3956, 34.2367],
            [74.2956, 33.8367],
            [73.4956, 33.5367]
          ]
        ]
      }
    },
    {
      "type": "Feature",
      "id": 15,
      "properties": {
        "id": 15,
        "iso": "IN-JH",
        "name": "Jharkhand",
        "type": "State",
        "capital": "Ranchi",
        "area_km2": 79716
      },
      "geometry": {
        "type": "Polygon",
        "coordinates": [
          [
            [83.3267, 22.5678],
            [83.9267, 22.3678],
            [84.5267, 22.2678],
            [85.1267, 22.2678],
            [85.7267, 22.3678],
            [86.3267, 22.5678],
            [86.9267, 22.8678],
            [87.4267, 23.2678],
            [87.8267, 23.7678],
            [88.0267, 24.2678],
            [88.0267, 24.8678],
            [87.8267, 25.3678],
            [87.4267, 25.7678],
            [86.9267, 26.0678],
            [86.3267, 26.2678],
            [85.7267, 26.2678],
            [85.1267, 26.0678],
            [84.5267, 25.7678],
            [83.9267, 25.3678],
            [83.4267, 24.8678],
            [83.1267, 24.2678],
            [83.0267, 23.7678],
            [83.1267, 23.2678],
            [83.3267, 22.5678]
          ]
        ]
      }
    },
    {
      "type": "Feature",
      "id": 16,
      "properties": {
        "id": 16,
        "iso": "IN-KA",
        "name": "Karnataka",
        "type": "State",
        "capital": "Bengaluru",
        "area_km2": 191791
      },
      "geometry": {
        "type": "Polygon",
        "coordinates": [
          [
            [74.0478, 15.9789],
            [74.6478, 15.7789],
            [75.2478, 15.6789],
            [75.8478, 15.6789],
            [76.4478, 15.7789],
            [77.0478, 15.9789],
            [77.6478, 16.2789],
            [78.2478, 16.6789],
            [78.7478, 17.1789],
            [79.1478, 17.7789],
            [79.3478, 18.3789],
            [79.3478, 18.9789],
            [79.1478, 19.5789],
            [78.7478, 20.0789],
            [78.2478, 20.4789],
            [77.6478, 20.6789],
            [77.0478, 20.6789],
            [76.4478, 20.4789],
            [75.8478, 20.0789],
            [75.3478, 19.5789],
            [74.9478, 18.9789],
            [74.7478, 18.3789],
            [74.6478, 17.7789],
            [74.6478, 17.1789],
            [74.7478, 16.6789],
            [74.0478, 15.9789]
          ]
        ]
      }
    },
    {
      "type": "Feature",
      "id": 17,
      "properties": {
        "id": 17,
        "iso": "IN-KL",
        "name": "Kerala",
        "type": "State",
        "capital": "Thiruvananthapuram",
        "area_km2": 38852
      },
      "geometry": {
        "type": "Polygon",
        "coordinates": [
          [
            [74.8589, 12.5023],
            [75.2589, 12.3023],
            [75.6589, 12.2023],
            [76.0589, 12.2023],
            [76.4589, 12.3023],
            [76.8589, 12.5023],
            [77.1589, 12.8023],
            [77.3589, 13.2023],
            [77.4589, 13.6023],
            [77.4589, 14.0023],
            [77.3589, 14.4023],
            [77.1589, 14.7023],
            [76.8589, 14.9023],
            [76.4589, 15.0023],
            [76.0589, 15.0023],
            [75.6589, 14.9023],
            [75.2589, 14.7023],
            [74.9589, 14.4023],
            [74.7589, 14.0023],
            [74.6589, 13.6023],
            [74.6589, 13.2023],
            [74.7589, 12.8023],
            [74.8589, 12.5023]
          ]
        ]
      }
    },
    {
      "type": "Feature",
      "id": 18,
      "properties": {
        "id": 18,
        "iso": "IN-LA",
        "name": "Ladakh",
        "type": "Union Territory",
        "capital": "Leh, Kargil",
        "area_km2": 59146
      },
      "geometry": {
        "type": "Polygon",
        "coordinates": [
          [
            [75.5067, 34.5178],
            [76.1067, 34.3178],
            [76.7067, 34.2178],
            [77.3067, 34.2178],
            [77.9067, 34.3178],
            [78.5067, 34.5178],
            [79.1067, 34.8178],
            [79.7067, 35.2178],
            [80.2067, 35.7178],
            [80.6067, 36.2178],
            [80.8067, 36.7178],
            [80.6067, 37.2178],
            [80.2067, 37.6178],
            [79.6067, 37.8178],
            [79.0067, 37.8178],
            [78.4067, 37.6178],
            [77.8067, 37.2178],
            [77.3067, 36.7178],
            [76.9067, 36.2178],
            [76.6067, 35.7178],
            [76.4067, 35.2178],
            [76.3067, 34.8178],
            [75.5067, 34.5178]
          ]
        ]
      }
    },
    {
      "type": "Feature",
      "id": 19,
      "properties": {
        "id": 19,
        "iso": "IN-LD",
        "name": "Lakshadweep",
        "type": "Union Territory",
        "capital": "Kavaratti",
        "area_km2": 32
      },
      "geometry": {
        "type": "MultiPolygon",
        "coordinates": [
          [
            [
              [72.6369, 11.1234],
              [72.6869, 11.0934],
              [72.6869, 11.0434],
              [72.6369, 11.0134],
              [72.5869, 11.0134],
              [72.5369, 11.0434],
              [72.5369, 11.0934],
              [72.5869, 11.1234],
              [72.6369, 11.1234]
            ]
          ]
        ]
      }
    },
    {
      "type": "Feature",
      "id": 20,
      "properties": {
        "id": 20,
        "iso": "IN-MP",
        "name": "Madhya Pradesh",
        "type": "State",
        "capital": "Bhopal",
        "area_km2": 308245
      },
      "geometry": {
        "type": "Polygon",
        "coordinates": [
          [
            [74.0178, 23.4689],
            [74.6178, 23.2689],
            [75.2178, 23.1689],
            [75.8178, 23.1689],
            [76.4178, 23.2689],
            [77.0178, 23.4689],
            [77.6178, 23.7689],
            [78.2178, 24.1689],
            [78.7178, 24.6689],
            [79.1178, 25.2689],
            [79.3178, 25.8689],
            [79.3178, 26.4689],
            [79.1178, 27.0689],
            [78.7178, 27.5689],
            [78.2178, 27.9689],
            [77.6178, 28.1689],
            [77.0178, 28.1689],
            [76.4178, 27.9689],
            [75.8178, 27.5689],
            [75.3178, 27.0689],
            [74.9178, 26.4689],
            [74.7178, 25.8689],
            [74.6178, 25.2689],
            [74.6178, 24.6689],
            [74.7178, 24.1689],
            [74.0178, 23.4689]
          ]
        ]
      }
    },
    {
      "type": "Feature",
      "id": 21,
      "properties": {
        "id": 21,
        "iso": "IN-MH",
        "name": "Maharashtra",
        "type": "State",
        "capital": "Mumbai",
        "area_km2": 307713
      },
      "geometry": {
        "type": "Polygon",
        "coordinates": [
          [
            [72.6589, 20.0900],
            [73.2589, 19.8900],
            [73.8589, 19.7900],
            [74.4589, 19.7900],
            [75.0589, 19.8900],
            [75.6589, 20.0900],
            [76.2589, 20.3900],
            [76.8589, 20.7900],
            [77.3589, 21.2900],
            [77.7589, 21.8900],
            [77.9589, 22.4900],
            [77.9589, 23.0900],
            [77.7589, 23.6900],
            [77.3589, 24.1900],
            [76.8589, 24.5900],
            [76.2589, 24.7900],
            [75.6589, 24.7900],
            [75.0589, 24.5900],
            [74.4589, 24.1900],
            [73.9589, 23.6900],
            [73.5589, 23.0900],
            [73.3589, 22.4900],
            [73.2589, 21.8900],
            [73.2589, 21.2900],
            [73.3589, 20.7900],
            [72.6589, 20.0900]
          ]
        ]
      }
    },
    {
      "type": "Feature",
      "id": 22,
      "properties": {
        "id": 22,
        "iso": "IN-MN",
        "name": "Manipur",
        "type": "State",
        "capital": "Imphal",
        "area_km2": 22327
      },
      "geometry": {
        "type": "Polygon",
        "coordinates": [
          [
            [93.0334, 24.9411],
            [93.3834, 24.7411],
            [93.7334, 24.6411],
            [94.0834, 24.6411],
            [94.4334, 24.7411],
            [94.7834, 24.9411],
            [95.0334, 25.2411],
            [95.1834, 25.5911],
            [95.2334, 25.9411],
            [95.1834, 26.2911],
            [95.0334, 26.5911],
            [94.7834, 26.8411],
            [94.4334, 27.0411],
            [94.0834, 27.1411],
            [93.7334, 27.1411],
            [93.3834, 27.0411],
            [93.0334, 26.8411],
            [92.7334, 26.5911],
            [92.5334, 26.2911],
            [92.4334, 25.9411],
            [92.4834, 25.5911],
            [92.6334, 25.2411],
            [93.0334, 24.9411]
          ]
        ]
      }
    },
    {
      "type": "Feature",
      "id": 23,
      "properties": {
        "id": 23,
        "iso": "IN-ML",
        "name": "Meghalaya",
        "type": "State",
        "capital": "Shillong",
        "area_km2": 22429
      },
      "geometry": {
        "type": "Polygon",
        "coordinates": [
          [
            [89.8345, 25.9522],
            [90.2345, 25.7522],
            [90.6345, 25.6522],
            [91.0345, 25.6522],
            [91.4345, 25.7522],
            [91.8345, 25.9522],
            [92.1345, 26.2522],
            [92.3345, 26.6022],
            [92.3845, 26.9522],
            [92.3345, 27.3022],
            [92.1345, 27.6022],
            [91.8345, 27.8522],
            [91.4345, 28.0522],
            [91.0345, 28.1522],
            [90.6345, 28.1522],
            [90.2345, 28.0522],
            [89.8345, 27.8522],
            [89.4845, 27.6022],
            [89.2345, 27.3022],
            [89.1345, 26.9522],
            [89.1845, 26.6022],
            [89.3845, 26.2522],
            [89.8345, 25.9522]
          ]
        ]
      }
    },
    {
      "type": "Feature",
      "id": 24,
      "properties": {
        "id": 24,
        "iso": "IN-MZ",
        "name": "Mizoram",
        "type": "State",
        "capital": "Aizawl",
        "area_km2": 21081
      },
      "geometry": {
        "type": "Polygon",
        "coordinates": [
          [
            [92.1645, 24.0633],
            [92.5145, 23.8633],
            [92.8645, 23.7633],
            [93.2145, 23.7633],
            [93.5645, 23.8633],
            [93.9145, 24.0633],
            [94.1645, 24.3633],
            [94.3145, 24.7133],
            [94.3645, 25.0633],
            [94.3145, 25.4133],
            [94.1645, 25.7133],
            [93.9145, 25.9633],
            [93.5645, 26.1633],
            [93.2145, 26.2633],
            [92.8645, 26.2633],
            [92.5145, 26.1633],
            [92.1645, 25.9633],
            [91.8645, 25.7133],
            [91.6645, 25.4133],
            [91.5645, 25.0633],
            [91.6145, 24.7133],
            [91.7645, 24.3633],
            [92.1645, 24.0633]
          ]
        ]
      }
    },
    {
      "type": "Feature",
      "id": 25,
      "properties": {
        "id": 25,
        "iso": "IN-NL",
        "name": "Nagaland",
        "type": "State",
        "capital": "Kohima",
        "area_km2": 16579
      },
      "geometry": {
        "type": "Polygon",
        "coordinates": [
          [
            [93.3256, 26.3744],
            [93.6756, 26.1744],
            [94.0256, 26.0744],
            [94.3756, 26.0744],
            [94.7256, 26.1744],
            [95.0756, 26.3744],
            [95.3256, 26.6744],
            [95.4756, 27.0244],
            [95.5256, 27.3744],
            [95.4756, 27.7244],
            [95.3256, 28.0244],
            [95.0756, 28.2744],
            [94.7256, 28.4744],
            [94.3756, 28.5744],
            [94.0256, 28.5744],
            [93.6756, 28.4744],
            [93.3256, 28.2744],
            [93.0256, 28.0244],
            [92.8256, 27.7244],
            [92.7256, 27.3744],
            [92.7756, 27.0244],
            [92.9256, 26.6744],
            [93.3256, 26.3744]
          ]
        ]
      }
    },
    {
      "type": "Feature",
      "id": 26,
      "properties": {
        "id": 26,
        "iso": "IN-OR",
        "name": "Odisha",
        "type": "State",
        "capital": "Bhubaneswar",
        "area_km2": 155707
      },
      "geometry": {
        "type": "Polygon",
        "coordinates": [
          [
            [81.3167, 20.7155],
            [81.9167, 20.5155],
            [82.5167, 20.4155],
            [83.1167, 20.4155],
            [83.7167, 20.5155],
            [84.3167, 20.7155],
            [84.9167, 21.0155],
            [85.4167, 21.4155],
            [85.8167, 21.9155],
            [86.0167, 22.4155],
            [86.0167, 23.0155],
            [85.8167, 23.6155],
            [85.4167, 24.1155],
            [84.9167, 24.5155],
            [84.3167, 24.7155],
            [83.7167, 24.7155],
            [83.1167, 24.5155],
            [82.5167, 24.1155],
            [81.9167, 23.6155],
            [81.4167, 23.0155],
            [81.1167, 22.4155],
            [81.0167, 21.9155],
            [81.1167, 21.4155],
            [81.3167, 20.7155]
          ]
        ]
      }
    },
    {
      "type": "Feature",
      "id": 27,
      "properties": {
        "id": 27,
        "iso": "IN-PY",
        "name": "Puducherry",
        "type": "Union Territory",
        "capital": "Puducherry",
        "area_km2": 490
      },
      "geometry": {
        "type": "MultiPolygon",
        "coordinates": [
          [
            [
              [79.8278, 11.9266],
              [79.8778, 11.8966],
              [79.8778, 11.8466],
              [79.8278, 11.8166],
              [79.7778, 11.8166],
              [79.7278, 11.8466],
              [79.7278, 11.8966],
              [79.7778, 11.9266],
              [79.8278, 11.9266]
            ]
          ]
        ]
      }
    },
    {
      "type": "Feature",
      "id": 28,
      "properties": {
        "id": 28,
        "iso": "IN-PB",
        "name": "Punjab",
        "type": "State",
        "capital": "Chandigarh",
        "area_km2": 50362
      },
      "geometry": {
        "type": "Polygon",
        "coordinates": [
          [
            [73.8789, 31.0377],
            [74.4789, 30.8377],
            [75.0789, 30.7377],
            [75.6789, 30.7377],
            [76.2789, 30.8377],
            [76.8789, 31.0377],
            [77.3789, 31.3377],
            [77.7789, 31.7377],
            [77.9789, 32.2377],
            [77.9789, 32.7377],
            [77.7789, 33.2377],
            [77.3789, 33.6377],
            [76.8789, 33.9377],
            [76.2789, 34.1377],
            [75.6789, 34.1377],
            [75.0789, 33.9377],
            [74.4789, 33.6377],
            [74.0789, 33.2377],
            [73.7789, 32.7377],
            [73.6789, 32.2377],
            [73.7789, 31.7377],
            [73.8789, 31.0377]
          ]
        ]
      }
    },
    {
      "type": "Feature",
      "id": 29,
      "properties": {
        "id": 29,
        "iso": "IN-RJ",
        "name": "Rajasthan",
        "type": "State",
        "capital": "Jaipur",
        "area_km2": 342239
      },
      "geometry": {
        "type": "Polygon",
        "coordinates": [
          [
            [69.4989, 23.7488],
            [70.0989, 23.5488],
            [70.6989, 23.4488],
            [71.2989, 23.4488],
            [71.8989, 23.5488],
            [72.4989, 23.7488],
            [73.0989, 24.0488],
            [73.6989, 24.4488],
            [74.1989, 24.9488],
            [74.5989, 25.5488],
            [74.7989, 26.1488],
            [74.7989, 26.7488],
            [74.5989, 27.3488],
            [74.1989, 27.8488],
            [73.6989, 28.2488],
            [73.0989, 28.5488],
            [72.4989, 28.6488],
            [71.8989, 28.5488],
            [71.2989, 28.2488],
            [70.6989, 27.8488],
            [70.2989, 27.3488],
            [70.0989, 26.7488],
            [70.0989, 26.1488],
            [70.2989, 25.5488],
            [70.6989, 24.9488],
            [71.1989, 24.4488],
            [69.4989, 23.7488]
          ]
        ]
      }
    },
    {
      "type": "Feature",
      "id": 30,
      "properties": {
        "id": 30,
        "iso": "IN-SK",
        "name": "Sikkim",
        "type": "State",
        "capital": "Gangtok",
        "area_km2": 7096
      },
      "geometry": {
        "type": "Polygon",
        "coordinates": [
          [
            [88.0634, 27.5599],
            [88.3634, 27.3599],
            [88.6634, 27.2599],
            [88.9634, 27.2599],
            [89.2634, 27.3599],
            [89.5634, 27.5599],
            [89.7634, 27.8599],
            [89.8634, 28.2099],
            [89.8634, 28.5599],
            [89.7634, 28.9099],
            [89.5634, 29.2099],
            [89.2634, 29.4599],
            [88.9634, 29.6599],
            [88.6634, 29.7599],
            [88.3634, 29.7599],
            [88.0634, 29.6599],
            [87.7634, 29.4599],
            [87.5134, 29.2099],
            [87.3634, 28.9099],
            [87.3134, 28.5599],
            [87.3634, 28.2099],
            [87.5134, 27.8599],
            [88.0634, 27.5599]
          ]
        ]
      }
    },
    {
      "type": "Feature",
      "id": 31,
      "properties": {
        "id": 31,
        "iso": "IN-TN",
        "name": "Tamil Nadu",
        "type": "State",
        "capital": "Chennai",
        "area_km2": 130060
      },
      "geometry": {
        "type": "Polygon",
        "coordinates": [
          [
            [76.2289, 11.6710],
            [76.8289, 11.4710],
            [77.4289, 11.3710],
            [78.0289, 11.3710],
            [78.6289, 11.4710],
            [79.2289, 11.6710],
            [79.8289, 11.9710],
            [80.3289, 12.3710],
            [80.7289, 12.8710],
            [80.9289, 13.4710],
            [80.9289, 14.0710],
            [80.7289, 14.6710],
            [80.3289, 15.1710],
            [79.8289, 15.5710],
            [79.2289, 15.7710],
            [78.6289, 15.7710],
            [78.0289, 15.5710],
            [77.4289, 15.1710],
            [76.9289, 14.6710],
            [76.5289, 14.0710],
            [76.3289, 13.4710],
            [76.2289, 12.8710],
            [76.2289, 12.3710],
            [76.2289, 11.6710]
          ]
        ]
      }
    },
    {
      "type": "Feature",
      "id": 32,
      "properties": {
        "id": 32,
        "iso": "IN-TG",
        "name": "Telangana",
        "type": "State",
        "capital": "Hyderabad",
        "area_km2": 112077
      },
      "geometry": {
        "type": "Polygon",
        "coordinates": [
          [
            [77.2389, 18.5821],
            [77.8389, 18.3821],
            [78.4389, 18.2821],
            [79.0389, 18.2821],
            [79.6389, 18.3821],
            [80.2389, 18.5821],
            [80.7389, 18.8821],
            [81.1389, 19.2821],
            [81.4389, 19.7821],
            [81.5389, 20.3821],
            [81.4389, 20.9821],
            [81.1389, 21.4821],
            [80.7389, 21.8821],
            [80.2389, 22.1821],
            [79.6389, 22.2821],
            [79.0389, 22.1821],
            [78.4389, 21.8821],
            [77.8389, 21.4821],
            [77.3389, 20.9821],
            [77.0389, 20.3821],
            [76.9389, 19.7821],
            [77.0389, 19.2821],
            [77.2389, 18.5821]
          ]
        ]
      }
    },
    {
      "type": "Feature",
      "id": 33,
      "properties": {
        "id": 33,
        "iso": "IN-TR",
        "name": "Tripura",
        "type": "State",
        "capital": "Agartala",
        "area_km2": 10486
      },
      "geometry": {
        "type": "Polygon",
        "coordinates": [
          [
            [91.0545, 24.0932],
            [91.3545, 23.8932],
            [91.6545, 23.7932],
            [91.9545, 23.7932],
            [92.2545, 23.8932],
            [92.5545, 24.0932],
            [92.7545, 24.3932],
            [92.8545, 24.7432],
            [92.8545, 25.0932],
            [92.7545, 25.4432],
            [92.5545, 25.7432],
            [92.2545, 25.9932],
            [91.9545, 26.1932],
            [91.6545, 26.2932],
            [91.3545, 26.2932],
            [91.0545, 26.1932],
            [90.7545, 25.9932],
            [90.5045, 25.7432],
            [90.3545, 25.4432],
            [90.3045, 25.0932],
            [90.3545, 24.7432],
            [90.5045, 24.3932],
            [91.0545, 24.0932]
          ]
        ]
      }
    },
    {
      "type": "Feature",
      "id": 34,
      "properties": {
        "id": 34,
        "iso": "IN-UP",
        "name": "Uttar Pradesh",
        "type": "State",
        "capital": "Lucknow",
        "area_km2": 240928
      },
      "geometry": {
        "type": "Polygon",
        "coordinates": [
          [
            [77.0889, 27.0043],
            [77.6889, 26.8043],
            [78.2889, 26.7043],
            [78.8889, 26.7043],
            [79.4889, 26.8043],
            [80.0889, 27.0043],
            [80.6889, 27.3043],
            [81.2889, 27.7043],
            [81.7889, 28.2043],
            [82.1889, 28.8043],
            [82.3889, 29.4043],
            [82.3889, 30.0043],
            [82.1889, 30.6043],
            [81.7889, 31.1043],
            [81.2889, 31.5043],
            [80.6889, 31.8043],
            [80.0889, 31.9043],
            [79.4889, 31.8043],
            [78.8889, 31.5043],
            [78.2889, 31.1043],
            [77.6889, 30.6043],
            [77.1889, 30.0043],
            [76.8889, 29.4043],
            [76.7889, 28.8043],
            [76.8889, 28.2043],
            [77.0889, 27.0043]
          ]
        ]
      }
    },
    {
      "type": "Feature",
      "id": 35,
      "properties": {
        "id": 35,
        "iso": "IN-UT",
        "name": "Uttarakhand",
        "type": "State",
        "capital": "Dehradun (Winter), Gairsain (Summer)",
        "area_km2": 53483
      },
      "geometry": {
        "type": "Polygon",
        "coordinates": [
          [
            [77.5789, 29.5154],
            [78.0789, 29.3154],
            [78.5789, 29.2154],
            [79.0789, 29.2154],
            [79.5789, 29.3154],
            [80.0789, 29.5154],
            [80.4789, 29.8154],
            [80.7789, 30.2154],
            [80.9789, 30.7154],
            [80.9789, 31.2154],
            [80.7789, 31.7154],
            [80.4789, 32.1154],
            [79.9789, 32.4154],
            [79.4789, 32.6154],
            [78.8789, 32.6154],
            [78.2789, 32.4154],
            [77.7789, 32.1154],
            [77.3789, 31.7154],
            [77.0789, 31.2154],
            [76.9789, 30.7154],
            [77.0789, 30.2154],
            [77.2789, 29.8154],
            [77.5789, 29.5154]
          ]
        ]
      }
    },
    {
      "type": "Feature",
      "id": 36,
      "properties": {
        "id": 36,
        "iso": "IN-WB",
        "name": "West Bengal",
        "type": "State",
        "capital": "Kolkata",
        "area_km2": 88752
      },
      "geometry": {
        "type": "Polygon",
        "coordinates": [
          [
            [85.8234, 21.8265],
            [86.4234, 21.6265],
            [87.0234, 21.5265],
            [87.6234, 21.5265],
            [88.2234, 21.6265],
            [88.8234, 21.8265],
            [89.3234, 22.1265],
            [89.7234, 22.5265],
            [90.0234, 23.0265],
            [90.1234, 23.6265],
            [90.0234, 24.2265],
            [89.7234, 24.7265],
            [89.3234, 25.1265],
            [88.8234, 25.4265],
            [88.2234, 25.5265],
            [87.6234, 25.4265],
            [87.0234, 25.1265],
            [86.4234, 24.7265],
            [85.9234, 24.2265],
            [85.5234, 23.6265],
            [85.3234, 23.0265],
            [85.3234, 22.5265],
            [85.5234, 22.1265],
            [85.8234, 21.8265]
          ]
        ]
      }
    }
  ]
}
